start=new Date('2022-02-08T00:00:00.000Z').valueOf();
sats=[{"ELEMENT_SET_NO":"999","GP_ID":"195482169","ECCENTRICITY":"0.00043700","NORAD_CAT_ID":"49155","EPOCH":"2022-02-07T14:00:01.000224","FILE":"3294379","MEAN_MOTION_DOT":"-0.00053186","OBJECT_TYPE":"PAYLOAD","MEAN_MOTION_DDOT":"0.0000000000000","DECAY_DATE":null,"INCLINATION":"70.0003","ARG_OF_PERICENTER":"301.3382","MEAN_MOTION":"15.69797235","PERIOD":"91.732","MEAN_ELEMENT_THEORY":"SGP4","OBJECT_NAME":"STARLINK-3060","APOAPSIS":"362.423","TLE_LINE2":"2 49155  70.0003  75.1548 0004370 301.3382 208.0800 15.69797235  3689","SITE":"AFWTR","MEAN_ANOMALY":"208.0800","TLE_LINE1":"1 49155U 21082AB  22038.58334491 -.00053186  00000-0 -44557-3 0  9992","COUNTRY_CODE":"US","OBJECT_ID":"2021-082AB","BSTAR":"-0.00044557000000","CLASSIFICATION_TYPE":"U","LAUNCH_DATE":"2021-09-14","CENTER_NAME":"EARTH","REV_AT_EPOCH":"368","SEMIMAJOR_AXIS":"6737.614","RA_OF_ASC_NODE":"75.1548","TIME_SYSTEM":"UTC","REF_FRAME":"TEME","PERIAPSIS":"356.535","EPHEMERIS_TYPE":"0","RCS_SIZE":"LARGE"},{"RA_OF_ASC_NODE":"74.2069","PERIAPSIS":"356.642","EPHEMERIS_TYPE":"0","RCS_SIZE":"LARGE","TIME_SYSTEM":"UTC","REF_FRAME":"TEME","MEAN_ANOMALY":"308.9337","TLE_LINE1":"1 49156U 21082AC  22038.91667824 -.00007018  00000-0 -56944-4 0  9996","COUNTRY_CODE":"US","BSTAR":"-0.00005694400000","OBJECT_ID":"2021-082AC","CLASSIFICATION_TYPE":"U","LAUNCH_DATE":"2021-09-14","CENTER_NAME":"EARTH","REV_AT_EPOCH":"2421","SEMIMAJOR_AXIS":"6737.630","ARG_OF_PERICENTER":"294.1457","MEAN_MOTION":"15.69791771","PERIOD":"91.732","OBJECT_NAME":"STARLINK-3085","APOAPSIS":"362.347","TLE_LINE2":"2 49156  70.0004  74.2069 0004234 294.1457 308.9337 15.69791771 24216","SITE":"AFWTR","MEAN_ELEMENT_THEORY":"SGP4","NORAD_CAT_ID":"49156","EPOCH":"2022-02-07T22:00:00.999936","FILE":"3294563","MEAN_MOTION_DOT":"-0.00007018","ELEMENT_SET_NO":"999","GP_ID":"195488365","ECCENTRICITY":"0.00042340","MEAN_MOTION_DDOT":"0.0000000000000","DECAY_DATE":null,"INCLINATION":"70.0004","OBJECT_TYPE":"PAYLOAD"},{"MEAN_MOTION":"15.44530647","PERIOD":"93.232","ARG_OF_PERICENTER":"281.8925","MEAN_ELEMENT_THEORY":"SGP4","APOAPSIS":"435.201","TLE_LINE2":"2 49157  69.9998  76.0946 0003584 281.8925 138.1221 15.44530647  3678","SITE":"AFWTR","OBJECT_NAME":"STARLINK-3051","GP_ID":"195483171","ELEMENT_SET_NO":"999","ECCENTRICITY":"0.00035840","FILE":"3294379","EPOCH":"2022-02-07T14:00:01.000224","MEAN_MOTION_DOT":"-0.00651684","NORAD_CAT_ID":"49157","OBJECT_TYPE":"PAYLOAD","INCLINATION":"69.9998","DECAY_DATE":null,"MEAN_MOTION_DDOT":"0.0000000000000","RA_OF_ASC_NODE":"76.0946","REF_FRAME":"TEME","TIME_SYSTEM":"UTC","RCS_SIZE":"LARGE","PERIAPSIS":"430.318","EPHEMERIS_TYPE":"0","TLE_LINE1":"1 49157U 21082AD  22038.58334491 -.00651684  00000-0 -15203-1 0  9995","BSTAR":"-0.01520300000000","COUNTRY_CODE":"US","OBJECT_ID":"2021-082AD","MEAN_ANOMALY":"138.1221","SEMIMAJOR_AXIS":"6810.895","CLASSIFICATION_TYPE":"U","LAUNCH_DATE":"2021-09-14","CENTER_NAME":"EARTH","REV_AT_EPOCH":"367"},{"MEAN_MOTION":"15.44595013","PERIOD":"93.228","ARG_OF_PERICENTER":"281.3170","MEAN_ELEMENT_THEORY":"SGP4","APOAPSIS":"435.000","SITE":"AFWTR","TLE_LINE2":"2 49158  69.9998  76.0898 0003567 281.3170 151.3744 15.44595013  3678","OBJECT_NAME":"STARLINK-3083","ELEMENT_SET_NO":"999","GP_ID":"195483422","ECCENTRICITY":"0.00035670","FILE":"3294379","EPOCH":"2022-02-07T14:00:01.000224","MEAN_MOTION_DOT":"-0.00651378","NORAD_CAT_ID":"49158","OBJECT_TYPE":"PAYLOAD","INCLINATION":"69.9998","MEAN_MOTION_DDOT":"0.0000000000000","DECAY_DATE":null,"RA_OF_ASC_NODE":"76.0898","REF_FRAME":"TEME","TIME_SYSTEM":"UTC","RCS_SIZE":"LARGE","PERIAPSIS":"430.141","EPHEMERIS_TYPE":"0","TLE_LINE1":"1 49158U 21082AE  22038.58334491 -.00651378  00000-0 -15162-1 0  9990","COUNTRY_CODE":"US","BSTAR":"-0.01516200000000","OBJECT_ID":"2021-082AE","MEAN_ANOMALY":"151.3744","SEMIMAJOR_AXIS":"6810.705","CLASSIFICATION_TYPE":"U","LAUNCH_DATE":"2021-09-14","CENTER_NAME":"EARTH","REV_AT_EPOCH":"367"},{"MEAN_MOTION_DDOT":"0.0000000000000","DECAY_DATE":null,"INCLINATION":"69.9980","OBJECT_TYPE":"PAYLOAD","NORAD_CAT_ID":"49159","EPOCH":"2022-02-07T14:00:01.000224","FILE":"3294379","MEAN_MOTION_DOT":"0.00040668","GP_ID":"195481670","ELEMENT_SET_NO":"999","ECCENTRICITY":"0.00039690","OBJECT_NAME":"STARLINK-3056","APOAPSIS":"574.916","TLE_LINE2":"2 49159  69.9980  94.0663 0003969 290.7759 315.8505 14.98297715  3570","SITE":"AFWTR","MEAN_ELEMENT_THEORY":"SGP4","ARG_OF_PERICENTER":"290.7759","MEAN_MOTION":"14.98297715","PERIOD":"96.109","CENTER_NAME":"EARTH","LAUNCH_DATE":"2021-09-14","CLASSIFICATION_TYPE":"U","REV_AT_EPOCH":"357","SEMIMAJOR_AXIS":"6950.293","MEAN_ANOMALY":"315.8505","TLE_LINE1":"1 49159U 21082AF  22038.58334491  .00040668  00000-0  33990-2 0  9993","COUNTRY_CODE":"US","BSTAR":"0.00339900000000","OBJECT_ID":"2021-082AF","PERIAPSIS":"569.399","EPHEMERIS_TYPE":"0","RCS_SIZE":"LARGE","TIME_SYSTEM":"UTC","REF_FRAME":"TEME","RA_OF_ASC_NODE":"94.0663"},{"TLE_LINE1":"1 49160U 21082AG  22038.91667824  .00024310  00000-0  20399-2 0  9996","BSTAR":"0.00203990000000","COUNTRY_CODE":"US","OBJECT_ID":"2021-082AG","MEAN_ANOMALY":"5.5234","SEMIMAJOR_AXIS":"6950.301","LAUNCH_DATE":"2021-09-14","CLASSIFICATION_TYPE":"U","CENTER_NAME":"EARTH","REV_AT_EPOCH":"2375","RA_OF_ASC_NODE":"93.2274","RCS_SIZE":"LARGE","PERIAPSIS":"569.825","EPHEMERIS_TYPE":"0","REF_FRAME":"TEME","TIME_SYSTEM":"UTC","FILE":"3294431","EPOCH":"2022-02-07T22:00:00.999936","MEAN_MOTION_DOT":"0.00024310","NORAD_CAT_ID":"49160","GP_ID":"195485587","ELEMENT_SET_NO":"999","ECCENTRICITY":"0.00033680","INCLINATION":"69.9986","DECAY_DATE":null,"MEAN_MOTION_DDOT":"0.0000000000000","OBJECT_TYPE":"PAYLOAD","MEAN_MOTION":"14.98294949","PERIOD":"96.109","ARG_OF_PERICENTER":"290.0029","APOAPSIS":"574.507","SITE":"AFWTR","TLE_LINE2":"2 49160  69.9986  93.2274 0003368 290.0029   5.5234 14.98294949 23753","OBJECT_NAME":"STARLINK-3095","MEAN_ELEMENT_THEORY":"SGP4"},{"PERIAPSIS":"569.392","EPHEMERIS_TYPE":"0","RCS_SIZE":"LARGE","TIME_SYSTEM":"UTC","REF_FRAME":"TEME","RA_OF_ASC_NODE":"93.2278","LAUNCH_DATE":"2021-09-14","CLASSIFICATION_TYPE":"U","CENTER_NAME":"EARTH","REV_AT_EPOCH":"2375","SEMIMAJOR_AXIS":"6950.221","MEAN_ANOMALY":"352.3492","TLE_LINE1":"1 49161U 21082AH  22038.91667824  .00024084  00000-0  20197-2 0  9991","BSTAR":"0.00201970000000","COUNTRY_CODE":"US","OBJECT_ID":"2021-082AH","OBJECT_NAME":"STARLINK-3080","APOAPSIS":"574.779","TLE_LINE2":"2 49161  69.9983  93.2278 0003875 277.4440 352.3492 14.98321060 23758","SITE":"AFWTR","MEAN_ELEMENT_THEORY":"SGP4","ARG_OF_PERICENTER":"277.4440","MEAN_MOTION":"14.98321060","PERIOD":"96.108","MEAN_MOTION_DDOT":"0.0000000000000","DECAY_DATE":null,"INCLINATION":"69.9983","OBJECT_TYPE":"PAYLOAD","NORAD_CAT_ID":"49161","EPOCH":"2022-02-07T22:00:00.999936","FILE":"3294432","MEAN_MOTION_DOT":"0.00024084","ELEMENT_SET_NO":"999","GP_ID":"195485198","ECCENTRICITY":"0.00038750"},{"SEMIMAJOR_AXIS":"6950.301","CLASSIFICATION_TYPE":"U","LAUNCH_DATE":"2021-09-14","CENTER_NAME":"EARTH","REV_AT_EPOCH":"2384","TLE_LINE1":"1 49162U 21082AJ  22038.91667824  .00024901  00000-0  20891-2 0  9991","COUNTRY_CODE":"US","BSTAR":"0.00208910000000","OBJECT_ID":"2021-082AJ","MEAN_ANOMALY":"38.1989","REF_FRAME":"TEME","TIME_SYSTEM":"UTC","RCS_SIZE":"LARGE","PERIAPSIS":"569.551","EPHEMERIS_TYPE":"0","RA_OF_ASC_NODE":"93.2296","OBJECT_TYPE":"PAYLOAD","INCLINATION":"69.9990","DECAY_DATE":null,"MEAN_MOTION_DDOT":"0.0000000000000","ELEMENT_SET_NO":"999","GP_ID":"195485601","ECCENTRICITY":"0.00037620","EPOCH":"2022-02-07T22:00:00.999936","FILE":"3294432","MEAN_MOTION_DOT":"0.00024901","NORAD_CAT_ID":"49162","MEAN_ELEMENT_THEORY":"SGP4","APOAPSIS":"574.780","SITE":"AFWTR","TLE_LINE2":"2 49162  69.9990  93.2296 0003762 283.0094  38.1989 14.98295120 23847","OBJECT_NAME":"STARLINK-3082","MEAN_MOTION":"14.98295120","PERIOD":"96.109","ARG_OF_PERICENTER":"283.0094"},{"RA_OF_ASC_NODE":"76.0800","TIME_SYSTEM":"UTC","REF_FRAME":"TEME","EPHEMERIS_TYPE":"0","PERIAPSIS":"429.525","RCS_SIZE":"LARGE","MEAN_ANOMALY":"165.6634","BSTAR":"-0.01504600000000","COUNTRY_CODE":"US","OBJECT_ID":"2021-082AK","TLE_LINE1":"1 49163U 21082AK  22038.58334491 -.00650917  00000-0 -15046-1 0  9995","REV_AT_EPOCH":"368","CLASSIFICATION_TYPE":"U","LAUNCH_DATE":"2021-09-14","CENTER_NAME":"EARTH","SEMIMAJOR_AXIS":"6810.111","ARG_OF_PERICENTER":"284.2862","PERIOD":"93.216","MEAN_MOTION":"15.44797082","MEAN_ELEMENT_THEORY":"SGP4","OBJECT_NAME":"STARLINK-3088","SITE":"AFWTR","TLE_LINE2":"2 49163  69.9998  76.0800 0003600 284.2862 165.6634 15.44797082  3682","APOAPSIS":"434.428","ECCENTRICITY":"0.00036000","ELEMENT_SET_NO":"999","GP_ID":"195482170","NORAD_CAT_ID":"49163","MEAN_MOTION_DOT":"-0.00650917","EPOCH":"2022-02-07T14:00:01.000224","FILE":"3294379","OBJECT_TYPE":"PAYLOAD","MEAN_MOTION_DDOT":"0.0000000000000","DECAY_DATE":null,"INCLINATION":"69.9998"},{"OBJECT_TYPE":"PAYLOAD","INCLINATION":"69.9999","MEAN_MOTION_DDOT":"0.0000000000000","DECAY_DATE":null,"ECCENTRICITY":"0.00035150","ELEMENT_SET_NO":"999","GP_ID":"195481921","MEAN_MOTION_DOT":"-0.00650622","FILE":"3294379","EPOCH":"2022-02-07T14:00:01.000224","NORAD_CAT_ID":"49164","MEAN_ELEMENT_THEORY":"SGP4","SITE":"AFWTR","TLE_LINE2":"2 49164  69.9999  76.0737 0003515 282.6279 189.5316 15.44978445  3688","APOAPSIS":"433.837","OBJECT_NAME":"STARLINK-3106","PERIOD":"93.205","MEAN_MOTION":"15.44978445","ARG_OF_PERICENTER":"282.6279","SEMIMAJOR_AXIS":"6809.578","REV_AT_EPOCH":"368","CLASSIFICATION_TYPE":"U","LAUNCH_DATE":"2021-09-14","CENTER_NAME":"EARTH","BSTAR":"-0.01494600000000","COUNTRY_CODE":"US","OBJECT_ID":"2021-082AL","TLE_LINE1":"1 49164U 21082AL  22038.58334491 -.00650622  00000-0 -14946-1 0  9997","MEAN_ANOMALY":"189.5316","REF_FRAME":"TEME","TIME_SYSTEM":"UTC","RCS_SIZE":"LARGE","EPHEMERIS_TYPE":"0","PERIAPSIS":"429.050","RA_OF_ASC_NODE":"76.0737"}];
